COMMENT,ORIGINATOR,NORAD_CAT_ID,OBJECT_NAME,OBJECT_TYPE,CLASSIFICATION_TYPE,INTLDES,EPOCH,EPOCH_MICROSECONDS,MEAN_MOTION,ECCENTRICITY,INCLINATION,RA_OF_ASC_NODE,ARG_OF_PERICENTER,MEAN_ANOMALY,EPHEMERIS_TYPE,ELEMENT_SET_NO,REV_AT_EPOCH,BSTAR,MEAN_MOTION_DOT,MEAN_MOTION_DDOT,FILE,TLE_LINE0,TLE_LINE1,TLE_LINE2,OBJECT_ID,OBJECT_NUMBER,SEMIMAJOR_AXIS,PERIOD,APOGEE,PERIGEE,DECAYED
"GENERATED VIA SPACETRACK.ORG API","18 SPCS","55099","SPACEBEE-156","PAYLOAD","U","23001CU","2023-09-25 17:17:36","682080","15.24019929","0.0013491","97.4662","328.1635","16.3733","343.7937","0","999","4039","0.0014937","0.00036362","0","4016730","0 SPACEBEE-156","1 55099U 23001CU  23268.72056345  .00036362  00000-0  14937-2 0  9993","2 55099  97.4662 328.1635 0013491  16.3733 343.7937 15.24019929 40397","2023-001CU","55099","6871.867","94.487","503.003","484.461","0"
"GENERATED VIA SPACETRACK.ORG API","18 SPCS","55099","SPACEBEE-156","PAYLOAD","U","23001CU","2023-09-26 02:44:53","357280","15.24048401","0.0013478","97.4662","328.5557","14.9984","345.165","0","999","4045","0.0014054","0.00034228","0","4017272","0 SPACEBEE-156","1 55099U 23001CU  23269.11450645  .00034228  00000-0  14054-2 0  9997","2 55099  97.4662 328.5557 0013478  14.9984 345.1650 15.24048401 40453","2023-001CU","55099","6871.781","94.485","502.908","484.385","0"
"GENERATED VIA SPACETRACK.ORG API","18 SPCS","55099","SPACEBEE-156","PAYLOAD","U","23001CU","2023-09-26 16:55:47","200224","15.2409292","0.0013435","97.4663","329.1439","13.2181","346.9406","0","999","4054","0.0014835","0.0003619","0","4017567","0 SPACEBEE-156","1 55099U 23001CU  23269.70540741  .00036190  00000-0  14835-2 0  9996","2 55099  97.4663 329.1439 0013435  13.2181 346.9406 15.24092920 40547","2023-001CU","55099","6871.648","94.482","502.745","484.281","0"
"GENERATED VIA SPACETRACK.ORG API","18 SPCS","55099","SPACEBEE-156","PAYLOAD","U","23001CU","2023-09-27 02:23:02","278752","15.24121483","0.0013427","97.4663","329.5362","11.9272","348.2281","0","999","4060","0.0014774","0.00036071","0","4017903","0 SPACEBEE-156","1 55099U 23001CU  23270.09933193  .00036071  00000-0  14774-2 0  9997","2 55099  97.4663 329.5362 0013427  11.9272 348.2281 15.24121483 40603","2023-001CU","55099","6871.562","94.481","502.653","484.200","0"
"GENERATED VIA SPACETRACK.ORG API","18 SPCS","55099","SPACEBEE-156","PAYLOAD","U","23001CU","2023-09-27 10:15:44","426592","15.24139568","0.0013359","97.4663","329.863","10.8315","349.3207","0","999","4065","0.001253","0.00030575","0","4018203","0 SPACEBEE-156","1 55099U 23001CU  23270.42759753  .00030575  00000-0  12530-2 0  9993","2 55099  97.4663 329.8630 0013359  10.8315 349.3207 15.24139568 40652","2023-001CU","55099","6871.507","94.480","502.552","484.193","0"
"GENERATED VIA SPACETRACK.ORG API","18 SPCS","55099","SPACEBEE-156","PAYLOAD","U","23001CU","2023-09-28 03:35:39","943104","15.24177325","0.0013288","97.466","330.5823","8.0741","352.0708","0","999","4076","0.0010152","0.00024766","0","4018784","0 SPACEBEE-156","1 55099U 23001CU  23271.14976786  .00024766  00000-0  10152-2 0  9993","2 55099  97.4660 330.5823 0013288   8.0741 352.0708 15.24177325 40767","2023-001CU","55099","6871.394","94.477","502.390","484.128","0"
"GENERATED VIA SPACETRACK.ORG API","18 SPCS","55099","SPACEBEE-156","PAYLOAD","U","23001CU","2023-09-28 14:37:25","375872","15.2420161","0.0013245","97.4658","331.04","6.2551","353.8849","0","999","4083","0.00099455","0.00024277","0","4019158","0 SPACEBEE-156","1 55099U 23001CU  23271.60932148  .00024277  00000-0  99455-3 0  9999","2 55099  97.4658 331.0400 0013245   6.2551 353.8849 15.24201610 40831","2023-001CU","55099","6871.321","94.476","502.287","484.085","0"
"GENERATED VIA SPACETRACK.ORG API","18 SPCS","55099","SPACEBEE-156","PAYLOAD","U","23001CU","2023-09-28 16:11:57","549696","15.24204439","0.00132","97.4657","331.1053","5.9372","354.2019","0","999","4084","0.0010052","0.0002454","0","4019377","0 SPACEBEE-156","1 55099U 23001CU  23271.67497164  .00024540  00000-0  10052-2 0  9998","2 55099  97.4657 331.1053 0013200   5.9372 354.2019 15.24204439 40840","2023-001CU","55099","6871.312","94.476","502.248","484.107","0"
"GENERATED VIA SPACETRACK.ORG API","18 SPCS","55099","SPACEBEE-156","PAYLOAD","U","23001CU","2023-09-29 09:31:50","463840","15.24240447","0.0013162","97.4652","331.8246","3.1638","356.968","0","999","4095","0.001027","0.00025102","0","4019951","0 SPACEBEE-156","1 55099U 23001CU  23272.39711185  .00025102  00000-0  10270-2 0  9997","2 55099  97.4652 331.8246 0013162   3.1638 356.9680 15.24240447 40952","2023-001CU","55099","6871.204","94.473","502.113","484.025","0"
"GENERATED VIA SPACETRACK.ORG API","18 SPCS","55099","SPACEBEE-156","PAYLOAD","U","23001CU","2023-09-29 09:31:50","463840","15.24240447","0.0013162","97.4652","331.8246","3.1638","356.968","0","999","4095","0.001027","0.00025102","0","4020020","0 SPACEBEE-156","1 55099U 23001CU  23272.39711185  .00025102  00000-0  10270-2 0  9997","2 55099  97.4652 331.8246 0013162   3.1638 356.9680 15.24240447 40952","2023-001CU","55099","6871.204","94.473","502.113","484.025","0"
"GENERATED VIA SPACETRACK.ORG API","18 SPCS","55099","SPACEBEE-156","PAYLOAD","U","23001CU","2023-09-30 02:51:41","618016","15.24287749","0.0013159","97.4648","332.5441","0.5408","359.5841","0","999","4106","0.0011945","0.00029265","0","4020567","0 SPACEBEE-156","1 55099U 23001CU  23273.11923169  .00029265  00000-0  11945-2 0  9999","2 55099  97.4648 332.5441 0013159   0.5408 359.5841 15.24287749 41061","2023-001CU","55099","6871.062","94.470","501.969","483.885","0"
"GENERATED VIA SPACETRACK.ORG API","18 SPCS","55099","SPACEBEE-156","PAYLOAD","U","23001CU","2023-09-30 02:51:41","618016","15.24287749","0.0013159","97.4648","332.5441","0.5408","359.5841","0","999","4106","0.0011945","0.00029265","0","4020886","0 SPACEBEE-156","1 55099U 23001CU  23273.11923169  .00029265  00000-0  11945-2 0  9999","2 55099  97.4648 332.5441 0013159   0.5408 359.5841 15.24287749 41061","2023-001CU","55099","6871.062","94.470","501.969","483.885","0"
"GENERATED VIA SPACETRACK.ORG API","18 SPCS","55099","SPACEBEE-156","PAYLOAD","U","23001CU","2023-10-01 04:04:09","100992","15.24359501","0.0013035","97.4644","333.59","357.0323","3.0835","0","999","4122","0.0014558","0.00035789","0","4021842","0 SPACEBEE-156","1 55099U 23001CU  23274.16954978  .00035789  00000-0  14558-2 0  9998","2 55099  97.4644 333.5900 0013035 357.0323   3.0835 15.24359501 41225","2023-001CU","55099","6870.846","94.466","501.668","483.755","0"
"GENERATED VIA SPACETRACK.ORG API","18 SPCS","55099","SPACEBEE-156","PAYLOAD","U","23001CU","2023-10-01 04:04:09","100992","15.24359501","0.0013035","97.4644","333.59","357.0323","3.0835","0","999","4122","0.0014558","0.00035789","0","4021853","0 SPACEBEE-156","1 55099U 23001CU  23274.16954978  .00035789  00000-0  14558-2 0  9998","2 55099  97.4644 333.5900 0013035 357.0323   3.0835 15.24359501 41225","2023-001CU","55099","6870.846","94.466","501.668","483.755","0"
"GENERATED VIA SPACETRACK.ORG API","18 SPCS","55099","SPACEBEE-156","PAYLOAD","U","23001CU","2023-10-01 15:05:49","791264","15.24387688","0.0012983","97.4643","334.0474","355.5162","4.5957","0","999","4129","0.0012495","0.00030712","0","4022139","0 SPACEBEE-156","1 55099U 23001CU  23274.62904851  .00030712  00000-0  12495-2 0  9993","2 55099  97.4643 334.0474 0012983 355.5162   4.5957 15.24387688 41296","2023-001CU","55099","6870.762","94.464","501.547","483.706","0"
"GENERATED VIA SPACETRACK.ORG API","18 SPCS","55099","SPACEBEE-156","PAYLOAD","U","23001CU","2023-10-02 10:00:06","304032","15.24437787","0.001287","97.4638","334.832","352.5843","7.5202","0","999","4141","0.0012741","0.00031366","0","4022717","0 SPACEBEE-156","1 55099U 23001CU  23275.41673963  .00031366  00000-0  12741-2 0  9998","2 55099  97.4638 334.8320 0012870 352.5843   7.5202 15.24437787 41412","2023-001CU","55099","6870.611","94.461","501.319","483.634","0"
"GENERATED VIA SPACETRACK.ORG API","18 SPCS","55099","SPACEBEE-156","PAYLOAD","U","23001CU","2023-10-02 17:52:42","548160","15.24457509","0.0012837","97.4636","335.1589","351.195","8.906","0","999","4146","0.0012094","0.0002978","0","4023120","0 SPACEBEE-156","1 55099U 23001CU  23275.74493690  .00029780  00000-0  12094-2 0  9999","2 55099  97.4636 335.1589 0012837 351.1950   8.9060 15.24457509 41464","2023-001CU","55099","6870.552","94.460","501.237","483.597","0"
"GENERATED VIA SPACETRACK.ORG API","18 SPCS","55099","SPACEBEE-156","PAYLOAD","U","23001CU","2023-10-03 03:19:49","515456","15.2448403","0.0012812","97.4635","335.5511","349.5974","10.4996","0","999","4152","0.0013109","0.00032322","0","4023690","0 SPACEBEE-156","1 55099U 23001CU  23276.13876754  .00032322  00000-0  13109-2 0  9993","2 55099  97.4635 335.5511 0012812 349.5974  10.4996 15.24484030 41524","2023-001CU","55099","6870.472","94.458","501.140","483.535","0"
"GENERATED VIA SPACETRACK.ORG API","18 SPCS","55099","SPACEBEE-156","PAYLOAD","U","23001CU","2023-10-03 17:30:28","975392","15.245187","0.0012756","97.4633","336.1394","347.3339","12.7576","0","999","4161","0.0012112","0.00029879","0","4023918","0 SPACEBEE-156","1 55099U 23001CU  23276.72950203  .00029879  00000-0  12112-2 0  9996","2 55099  97.4633 336.1394 0012756 347.3339  12.7576 15.24518700 41617","2023-001CU","55099","6870.368","94.456","500.997","483.469","0"
"GENERATED VIA SPACETRACK.ORG API","18 SPCS","55099","SPACEBEE-156","PAYLOAD","U","23001CU","2023-10-03 17:30:28","975392","15.245187","0.0012756","97.4633","336.1394","347.3339","12.7576","0","999","4161","0.0012112","0.00029879","0","4023936","0 SPACEBEE-156","1 55099U 23001CU  23276.72950203  .00029879  00000-0  12112-2 0  9996","2 55099  97.4633 336.1394 0012756 347.3339  12.7576 15.24518700 41617","2023-001CU","55099","6870.368","94.456","500.997","483.469","0"
